{
  "type": "FeatureCollection",
  "features": [
    {
      "type": "Feature",
      "properties": {
        "id": "gate_a",
        "name": "Gateway Alpha \u2014 Western Boundary",
        "color": "#00ff88",
        "description": "Western oceanic boundary \u2014 84.0\u00b0E"
      },
      "geometry": {
        "type": "LineString",
        "coordinates": [
          [
            84.0,
            6.0
          ],
          [
            84.0,
            19.5
          ]
        ]
      }
    },
    {
      "type": "Feature",
      "properties": {
        "id": "gate_b",
        "name": "Gateway Bravo \u2014 Northern Boundary",
        "color": "#00d4ff",
        "description": "Northern oceanic boundary \u2014 19.5\u00b0N"
      },
      "geometry": {
        "type": "LineString",
        "coordinates": [
          [
            84.0,
            19.5
          ],
          [
            93.5,
            19.5
          ]
        ]
      }
    },
    {
      "type": "Feature",
      "properties": {
        "id": "gate_c",
        "name": "Gateway Charlie \u2014 Southern Boundary",
        "color": "#ffb800",
        "description": "Southern oceanic boundary \u2014 6.0\u00b0N"
      },
      "geometry": {
        "type": "LineString",
        "coordinates": [
          [
            84.0,
            6.0
          ],
          [
            93.5,
            6.0
          ]
        ]
      }
    },
    {
      "type": "Feature",
      "properties": {
        "id": "gate_d",
        "name": "Gateway Delta \u2014 Eastern Boundary",
        "color": "#ff6b35",
        "description": "Eastern oceanic boundary \u2014 93.5\u00b0E"
      },
      "geometry": {
        "type": "LineString",
        "coordinates": [
          [
            93.5,
            6.0
          ],
          [
            93.5,
            19.5
          ]
        ]
      }
    }
  ]
}